[{"OBJECT_NAME":"STARLINK-2743","OBJECT_ID":"2021-044AW","EPOCH":"2026-03-09T10:18:22.656096","MEAN_MOTION":15.30200308,"ECCENTRICITY":9.944e-5,"INCLINATION":53.1601,"RA_OF_ASC_NODE":66.1547,"ARG_OF_PERICENTER":118.5506,"MEAN_ANOMALY":241.5595,"EPHEMERIS_TYPE":0,"CLASSIFICATION_TYPE":"U","NORAD_CAT_ID":48682,"ELEMENT_SET_NO":999,"REV_AT_EPOCH":26446,"BSTAR":-5.93542e-5,"MEAN_MOTION_DOT":-2.116e-5,"MEAN_MOTION_DDOT":0},{"OBJECT_NAME":"CZ-4C R\/B","OBJECT_ID":"2015-069B","EPOCH":"2026-03-09T18:13:41.887776","MEAN_MOTION":15.30824061,"ECCENTRICITY":0.00587215,"INCLINATION":97.486,"RA_OF_ASC_NODE":137.7913,"ARG_OF_PERICENTER":156.3643,"MEAN_ANOMALY":204.0316,"EPHEMERIS_TYPE":0,"CLASSIFICATION_TYPE":"U","NORAD_CAT_ID":41039,"ELEMENT_SET_NO":999,"REV_AT_EPOCH":56689,"BSTAR":0.0003480254,"MEAN_MOTION_DOT":0.00010856,"MEAN_MOTION_DDOT":0}]
